NUSAT-26 (M SOMERVILLE) 
1 52184U 22033AD  26201.90330263  .00011124  00000+0  25088-3 0  9991
2 52184  97.2328 280.7472 0007261 121.0515 239.1447 15.43376945109900
NUSAT-33 (ALBANIA-2)    
1 55047U 23001AQ  26201.93409362  .00006070  00000+0  22265-3 0  9996
2 55047  97.3049 262.1944 0004580 287.3321  72.7418 15.28324144197466
NUSAT-35 (WILLIAMINA)   
1 55048U 23001AR  26201.92014440  .00009291  00000+0  26760-3 0  9997
2 55048  97.1830 253.8312 0009770 349.0229  11.0801 15.35913592197582
NUSAT-39 (TIKVAH ALPER) 
1 56201U 23054Z   26201.99344317  .00020380  00000+0  38838-3 0  9994
2 56201  97.3076 112.0929 0001464 274.3739  85.7344 15.48212680183686
NUSAT-38 (MARIA AGNESI) 
1 56202U 23054AA  26201.91180789  .00025389  00000+0  43106-3 0  9996
2 56202  97.3018 112.7687 0008066 301.2227  58.8234 15.51428977183735
NUSAT-37 (JOAN CLARKE)  
1 56203U 23054AB  26202.00303545  .00037409  00000+0  46273-3 0  9999
2 56203  97.2586 109.7810 0008448 128.5557 231.6458 15.59980791183913
NUSAT-40 (C SHOEMAKER)  
1 56943U 23084M   26201.91285848  .00129461  00000+0  58467-3 0  9995
2 56943  97.4875 351.2959 0003496 179.4005 180.7269 15.83644332174139
NUSAT-41 (C PAYNE-G)    
1 56944U 23084N   26201.93758331  .00008000  00000+0  27804-3 0  9996
2 56944  97.5557 339.2020 0007477 187.9577 172.1546 15.29992279172940
NUSAT-42 (M WONENBURGER)
1 56966U 23084AL  26201.95064047  .00017075  00000+0  34345-3 0  9996
2 56966  97.5757 347.5279 0006894 128.6786 231.5081 15.46667181173293
NUSAT-44 (MARIA MITCHE*)
1 59122U 24043AA  26201.89400203  .00007183  00000+0  25051-3 0  9993
2 59122  97.5490 342.6744 0006672 115.3384 244.8547 15.29919599132426
NUSAT-50 (NANCY ROMAN)  
1 60493U 24149AB  26201.78184572  .00005548  00000+0  19140-3 0  9994
2 60493  97.3774 282.8143 0004853  88.8667 271.3129 15.30376508107261
NUSAT-48 (HENRIETTA LE*)
1 60498U 24149AG  26201.77102841  .00005414  00000+0  18711-3 0  9992
2 60498  97.3906 283.1047 0005217 142.6363 217.5242 15.30330391107276
NUSAT-49 (KLARA DAN VO*)
1 60500U 24149AJ  26201.94552059  .00002031  00000+0  72927-4 0  9997
2 60500  97.3766 283.0041 0002993 149.5148 210.6267 15.29836095107295
NUSAT-45 (UZMASAT-1)    
1 62640U 25009AH  26201.73779929  .00005105  00000+0  17916-3 0  9995
2 62640  97.3581 282.6331 0002248 162.5115 197.6203 15.29865355 84059
NUSAT-52                
1 66692U 25276AC  26201.85529606  .00003356  00000+0  15868-3 0  9990
2 66692  97.4189 274.8485 0001809 242.0134 118.0918 15.20070096 35535
NUSAT-51 (YVONNE BRILL) 
1 66740U 25276CC  26201.78868747  .00003528  00000+0  16409-3 0  9991
2 66740  97.4194 274.9308 0002200 207.7806 152.3313 15.20603280 35537
