{"fetched_at":"2026-07-21T07:07:03.107Z","source":"https://celestrak.org/NORAD/elements/gp.php?NAME=NUSAT&FORMAT=JSON","constellation":"satellogic","records":[{"OBJECT_NAME":"NUSAT-26 (M SOMERVILLE)","OBJECT_ID":"2022-033AD","EPOCH":"2026-07-20T21:40:45.347232","CLASSIFICATION_TYPE":"U","MEAN_MOTION":15.43376945,"ECCENTRICITY":0.00072611,"INCLINATION":97.2328,"RA_OF_ASC_NODE":280.7472,"ARG_OF_PERICENTER":121.0515,"MEAN_ANOMALY":239.1447,"EPHEMERIS_TYPE":0,"NORAD_CAT_ID":52184,"ELEMENT_SET_NO":999,"REV_AT_EPOCH":10990,"BSTAR":0.00025087616,"MEAN_MOTION_DOT":0.00011124,"MEAN_MOTION_DDOT":0},{"OBJECT_NAME":"NUSAT-33 (ALBANIA-2)","OBJECT_ID":"2023-001AQ","EPOCH":"2026-07-20T22:25:05.688768","CLASSIFICATION_TYPE":"U","MEAN_MOTION":15.28324144,"ECCENTRICITY":0.00045808,"INCLINATION":97.3049,"RA_OF_ASC_NODE":262.1944,"ARG_OF_PERICENTER":287.3321,"MEAN_ANOMALY":72.7418,"EPHEMERIS_TYPE":0,"NORAD_CAT_ID":55047,"ELEMENT_SET_NO":999,"REV_AT_EPOCH":19746,"BSTAR":0.00022265268,"MEAN_MOTION_DOT":0.0000607,"MEAN_MOTION_DDOT":0},{"OBJECT_NAME":"NUSAT-35 (WILLIAMINA)","OBJECT_ID":"2023-001AR","EPOCH":"2026-07-20T22:05:00.476160","CLASSIFICATION_TYPE":"U","MEAN_MOTION":15.35913592,"ECCENTRICITY":0.00097701,"INCLINATION":97.183,"RA_OF_ASC_NODE":253.8312,"ARG_OF_PERICENTER":349.0229,"MEAN_ANOMALY":11.0801,"EPHEMERIS_TYPE":0,"NORAD_CAT_ID":55048,"ELEMENT_SET_NO":999,"REV_AT_EPOCH":19758,"BSTAR":0.00026759648,"MEAN_MOTION_DOT":0.00009291,"MEAN_MOTION_DDOT":0},{"OBJECT_NAME":"NUSAT-39 (TIKVAH ALPER)","OBJECT_ID":"2023-054Z","EPOCH":"2026-07-20T23:50:33.489888","CLASSIFICATION_TYPE":"U","MEAN_MOTION":15.4821268,"ECCENTRICITY":0.00014646,"INCLINATION":97.3076,"RA_OF_ASC_NODE":112.0929,"ARG_OF_PERICENTER":274.3739,"MEAN_ANOMALY":85.7344,"EPHEMERIS_TYPE":0,"NORAD_CAT_ID":56201,"ELEMENT_SET_NO":999,"REV_AT_EPOCH":18368,"BSTAR":0.00038838483,"MEAN_MOTION_DOT":0.0002038,"MEAN_MOTION_DDOT":0},{"OBJECT_NAME":"NUSAT-38 (MARIA AGNESI)","OBJECT_ID":"2023-054AA","EPOCH":"2026-07-20T21:53:00.201696","CLASSIFICATION_TYPE":"U","MEAN_MOTION":15.51428977,"ECCENTRICITY":0.0008066,"INCLINATION":97.3018,"RA_OF_ASC_NODE":112.7687,"ARG_OF_PERICENTER":301.2227,"MEAN_ANOMALY":58.8234,"EPHEMERIS_TYPE":0,"NORAD_CAT_ID":56202,"ELEMENT_SET_NO":999,"REV_AT_EPOCH":18373,"BSTAR":0.00043105566,"MEAN_MOTION_DOT":0.00025389,"MEAN_MOTION_DDOT":0},{"OBJECT_NAME":"NUSAT-37 (JOAN CLARKE)","OBJECT_ID":"2023-054AB","EPOCH":"2026-07-21T00:04:22.262880","CLASSIFICATION_TYPE":"U","MEAN_MOTION":15.59980791,"ECCENTRICITY":0.00084482,"INCLINATION":97.2586,"RA_OF_ASC_NODE":109.781,"ARG_OF_PERICENTER":128.5557,"MEAN_ANOMALY":231.6458,"EPHEMERIS_TYPE":0,"NORAD_CAT_ID":56203,"ELEMENT_SET_NO":999,"REV_AT_EPOCH":18391,"BSTAR":0.00046272565,"MEAN_MOTION_DOT":0.00037409,"MEAN_MOTION_DDOT":0},{"OBJECT_NAME":"NUSAT-40 (C SHOEMAKER)","OBJECT_ID":"2023-084M","EPOCH":"2026-07-20T21:54:30.972672","CLASSIFICATION_TYPE":"U","MEAN_MOTION":15.83644332,"ECCENTRICITY":0.00034968,"INCLINATION":97.4875,"RA_OF_ASC_NODE":351.2959,"ARG_OF_PERICENTER":179.4005,"MEAN_ANOMALY":180.7269,"EPHEMERIS_TYPE":0,"NORAD_CAT_ID":56943,"ELEMENT_SET_NO":999,"REV_AT_EPOCH":17413,"BSTAR":0.00058467405,"MEAN_MOTION_DOT":0.00129461,"MEAN_MOTION_DDOT":0},{"OBJECT_NAME":"NUSAT-41 (C PAYNE-G)","OBJECT_ID":"2023-084N","EPOCH":"2026-07-20T22:30:07.197984","CLASSIFICATION_TYPE":"U","MEAN_MOTION":15.29992279,"ECCENTRICITY":0.00074776,"INCLINATION":97.5557,"RA_OF_ASC_NODE":339.202,"ARG_OF_PERICENTER":187.9577,"MEAN_ANOMALY":172.1546,"EPHEMERIS_TYPE":0,"NORAD_CAT_ID":56944,"ELEMENT_SET_NO":999,"REV_AT_EPOCH":17294,"BSTAR":0.00027804029,"MEAN_MOTION_DOT":0.00008,"MEAN_MOTION_DDOT":0},{"OBJECT_NAME":"NUSAT-42 (M WONENBURGER)","OBJECT_ID":"2023-084AL","EPOCH":"2026-07-20T22:48:55.336608","CLASSIFICATION_TYPE":"U","MEAN_MOTION":15.46667181,"ECCENTRICITY":0.0006894,"INCLINATION":97.5757,"RA_OF_ASC_NODE":347.5279,"ARG_OF_PERICENTER":128.6786,"MEAN_ANOMALY":231.5081,"EPHEMERIS_TYPE":0,"NORAD_CAT_ID":56966,"ELEMENT_SET_NO":999,"REV_AT_EPOCH":17329,"BSTAR":0.00034344711,"MEAN_MOTION_DOT":0.00017075,"MEAN_MOTION_DDOT":0},{"OBJECT_NAME":"NUSAT-44 (MARIA MITCHELL)","OBJECT_ID":"2024-043AA","EPOCH":"2026-07-20T21:27:21.775392","CLASSIFICATION_TYPE":"U","MEAN_MOTION":15.29919599,"ECCENTRICITY":0.00066728,"INCLINATION":97.549,"RA_OF_ASC_NODE":342.6744,"ARG_OF_PERICENTER":115.3384,"MEAN_ANOMALY":244.8547,"EPHEMERIS_TYPE":0,"NORAD_CAT_ID":59122,"ELEMENT_SET_NO":999,"REV_AT_EPOCH":13242,"BSTAR":0.00025051148,"MEAN_MOTION_DOT":0.00007183,"MEAN_MOTION_DDOT":0},{"OBJECT_NAME":"NUSAT-50 (NANCY ROMAN)","OBJECT_ID":"2024-149AB","EPOCH":"2026-07-20T18:45:51.470208","CLASSIFICATION_TYPE":"U","MEAN_MOTION":15.30376508,"ECCENTRICITY":0.00048532,"INCLINATION":97.3774,"RA_OF_ASC_NODE":282.8143,"ARG_OF_PERICENTER":88.8667,"MEAN_ANOMALY":271.3129,"EPHEMERIS_TYPE":0,"NORAD_CAT_ID":60493,"ELEMENT_SET_NO":999,"REV_AT_EPOCH":10726,"BSTAR":0.00019140366,"MEAN_MOTION_DOT":0.00005548,"MEAN_MOTION_DDOT":0},{"OBJECT_NAME":"NUSAT-48 (HENRIETTA LEAVITT)","OBJECT_ID":"2024-149AG","EPOCH":"2026-07-20T18:30:16.854624","CLASSIFICATION_TYPE":"U","MEAN_MOTION":15.30330391,"ECCENTRICITY":0.00052174,"INCLINATION":97.3906,"RA_OF_ASC_NODE":283.1047,"ARG_OF_PERICENTER":142.6363,"MEAN_ANOMALY":217.5242,"EPHEMERIS_TYPE":0,"NORAD_CAT_ID":60498,"ELEMENT_SET_NO":999,"REV_AT_EPOCH":10727,"BSTAR":0.00018711035,"MEAN_MOTION_DOT":0.00005414,"MEAN_MOTION_DDOT":0},{"OBJECT_NAME":"NUSAT-49 (KLARA DAN VON NEUMANN)","OBJECT_ID":"2024-149AJ","EPOCH":"2026-07-20T22:41:32.978976","CLASSIFICATION_TYPE":"U","MEAN_MOTION":15.29836095,"ECCENTRICITY":0.00029932,"INCLINATION":97.3766,"RA_OF_ASC_NODE":283.0041,"ARG_OF_PERICENTER":149.5148,"MEAN_ANOMALY":210.6267,"EPHEMERIS_TYPE":0,"NORAD_CAT_ID":60500,"ELEMENT_SET_NO":999,"REV_AT_EPOCH":10729,"BSTAR":0.000072926642,"MEAN_MOTION_DOT":0.00002031,"MEAN_MOTION_DDOT":0},{"OBJECT_NAME":"NUSAT-45 (UZMASAT-1)","OBJECT_ID":"2025-009AH","EPOCH":"2026-07-20T17:42:25.858656","CLASSIFICATION_TYPE":"U","MEAN_MOTION":15.29865355,"ECCENTRICITY":0.00022486,"INCLINATION":97.3581,"RA_OF_ASC_NODE":282.6331,"ARG_OF_PERICENTER":162.5115,"MEAN_ANOMALY":197.6203,"EPHEMERIS_TYPE":0,"NORAD_CAT_ID":62640,"ELEMENT_SET_NO":999,"REV_AT_EPOCH":8405,"BSTAR":0.0001791583,"MEAN_MOTION_DOT":0.00005105,"MEAN_MOTION_DDOT":0},{"OBJECT_NAME":"NUSAT-52","OBJECT_ID":"2025-276AC","EPOCH":"2026-07-20T20:31:37.579584","CLASSIFICATION_TYPE":"U","MEAN_MOTION":15.20070096,"ECCENTRICITY":0.00018095,"INCLINATION":97.4189,"RA_OF_ASC_NODE":274.8485,"ARG_OF_PERICENTER":242.0134,"MEAN_ANOMALY":118.0918,"EPHEMERIS_TYPE":0,"NORAD_CAT_ID":66692,"ELEMENT_SET_NO":999,"REV_AT_EPOCH":3553,"BSTAR":0.00015867946,"MEAN_MOTION_DOT":0.00003356,"MEAN_MOTION_DDOT":0},{"OBJECT_NAME":"NUSAT-51 (YVONNE BRILL)","OBJECT_ID":"2025-276CC","EPOCH":"2026-07-20T18:55:42.597408","CLASSIFICATION_TYPE":"U","MEAN_MOTION":15.2060328,"ECCENTRICITY":0.00022005,"INCLINATION":97.4194,"RA_OF_ASC_NODE":274.9308,"ARG_OF_PERICENTER":207.7806,"MEAN_ANOMALY":152.3313,"EPHEMERIS_TYPE":0,"NORAD_CAT_ID":66740,"ELEMENT_SET_NO":999,"REV_AT_EPOCH":3553,"BSTAR":0.00016409251,"MEAN_MOTION_DOT":0.00003528,"MEAN_MOTION_DDOT":0}]}
